STARLINK-35325          
1 66080U 25235Y   25319.50003471 -.02076246  00000+0 -51748-1 0  9991
2 66080  53.1602  57.3156 0001115  66.5865 348.5894 15.43298040  5495
STARLINK-35403          
1 66081U 25235Z   25319.48619417  .00106016  00000+0  18871-2 0  9998
2 66081  53.1604  57.3389 0001957  14.2493 345.8571 15.49328867  5418
STARLINK-35011          
1 66082U 25235AA  25319.42202576  .00152846  00000+0  26926-2 0  9999
2 66082  53.1603  57.6475 0000955 147.8404 212.2663 15.49416340  5401
STARLINK-35291          
1 66083U 25235AB  25319.48585112  .00087842  00000+0  15680-2 0  9994
2 66083  53.1606  57.3350 0002020  17.8712 342.2368 15.49339157  5380
STARLINK-35379          
1 66084U 25235AC  25319.48550339  .00138054  00000+0  24358-2 0  9992
2 66084  53.1610  57.3326 0000616 119.0422 241.0649 15.49435706  5410
STARLINK-35370          
1 66085U 25235AD  25319.48516137  .00091404  00000+0  16310-2 0  9997
2 66085  53.1606  57.3296 0001095  43.3223 316.7872 15.49332595  5388
STARLINK-35596          
1 66086U 25236A   25319.50003471 -.00108592  00000+0 -19688-2 0  9994
2 66086  53.1598 276.0481 0001621  85.3039  26.3644 15.49348275  5496
STARLINK-35563          
1 66087U 25236B   25319.50003471 -.00095101  00000+0 -17204-2 0  9998
2 66087  53.1597 276.0440 0001553  79.8506  33.7268 15.49346415  5434
STARLINK-35461          
1 66088U 25236C   25319.50003471 -.00103910  00000+0 -18825-2 0  9997
2 66088  53.1597 276.0369 0001475  78.7673  38.6511 15.49347276  5432
STARLINK-35571          
1 66089U 25236D   25319.50003471 -.00100890  00000+0 -18267-2 0  9992
2 66089  53.1598 276.0407 0001533  85.5831  29.9103 15.49350176  5493
STARLINK-35570          
1 66090U 25236E   25319.50003471 -.00107950  00000+0 -19567-2 0  9992
2 66090  53.1596 276.0335 0001455  79.6107  39.7224 15.49351964  5495
STARLINK-35532          
1 66091U 25236F   25319.50003471 -.00099474  00000+0 -18007-2 0  9992
2 66091  53.1596 276.0294 0001396  76.2196  45.0275 15.49349224  5497
