CCSDS_OMM_VERS = 2.0
CREATION_DATE  = 
ORIGINATOR     = 

OBJECT_NAME    = STARLINK-35325
OBJECT_ID      = 2025-235Y
CENTER_NAME    = EARTH
REF_FRAME      = TEME
TIME_SYSTEM    = UTC
MEAN_ELEMENT_THEORY = SGP/SGP4

EPOCH          = 2025-11-15T12:00:02.998944
MEAN_MOTION    = 15.43298040
ECCENTRICITY   = .0001115
INCLINATION    = 53.1602
RA_OF_ASC_NODE = 57.3156
ARG_OF_PERICENTER = 66.5865
MEAN_ANOMALY   = 348.5894

EPHEMERIS_TYPE = 0
CLASSIFICATION_TYPE = U
NORAD_CAT_ID   = 66080
ELEMENT_SET_NO = 999
REV_AT_EPOCH   = 549
BSTAR          = -.51748E-1
MEAN_MOTION_DOT = -.2076246E-1
MEAN_MOTION_DDOT = 0

CCSDS_OMM_VERS = 2.0
CREATION_DATE  = 
ORIGINATOR     = 

OBJECT_NAME    = STARLINK-35403
OBJECT_ID      = 2025-235Z
CENTER_NAME    = EARTH
REF_FRAME      = TEME
TIME_SYSTEM    = UTC
MEAN_ELEMENT_THEORY = SGP/SGP4

EPOCH          = 2025-11-15T11:40:07.176288
MEAN_MOTION    = 15.49328867
ECCENTRICITY   = .0001957
INCLINATION    = 53.1604
RA_OF_ASC_NODE = 57.3389
ARG_OF_PERICENTER = 14.2493
MEAN_ANOMALY   = 345.8571

EPHEMERIS_TYPE = 0
CLASSIFICATION_TYPE = U
NORAD_CAT_ID   = 66081
ELEMENT_SET_NO = 999
REV_AT_EPOCH   = 541
BSTAR          = .18871E-2
MEAN_MOTION_DOT = .106016E-2
MEAN_MOTION_DDOT = 0

CCSDS_OMM_VERS = 2.0
CREATION_DATE  = 
ORIGINATOR     = 

OBJECT_NAME    = STARLINK-35011
OBJECT_ID      = 2025-235AA
CENTER_NAME    = EARTH
REF_FRAME      = TEME
TIME_SYSTEM    = UTC
MEAN_ELEMENT_THEORY = SGP/SGP4

EPOCH          = 2025-11-15T10:07:43.025664
MEAN_MOTION    = 15.49416340
ECCENTRICITY   = .0000955
INCLINATION    = 53.1603
RA_OF_ASC_NODE = 57.6475
ARG_OF_PERICENTER = 147.8404
MEAN_ANOMALY   = 212.2663

EPHEMERIS_TYPE = 0
CLASSIFICATION_TYPE = U
NORAD_CAT_ID   = 66082
ELEMENT_SET_NO = 999
REV_AT_EPOCH   = 540
BSTAR          = .26926E-2
MEAN_MOTION_DOT = .152846E-2
MEAN_MOTION_DDOT = 0

CCSDS_OMM_VERS = 2.0
CREATION_DATE  = 
ORIGINATOR     = 

OBJECT_NAME    = STARLINK-35291
OBJECT_ID      = 2025-235AB
CENTER_NAME    = EARTH
REF_FRAME      = TEME
TIME_SYSTEM    = UTC
MEAN_ELEMENT_THEORY = SGP/SGP4

EPOCH          = 2025-11-15T11:39:37.536768
MEAN_MOTION    = 15.49339157
ECCENTRICITY   = .000202
INCLINATION    = 53.1606
RA_OF_ASC_NODE = 57.3350
ARG_OF_PERICENTER = 17.8712
MEAN_ANOMALY   = 342.2368

EPHEMERIS_TYPE = 0
CLASSIFICATION_TYPE = U
NORAD_CAT_ID   = 66083
ELEMENT_SET_NO = 999
REV_AT_EPOCH   = 538
BSTAR          = .1568E-2
MEAN_MOTION_DOT = .87842E-3
MEAN_MOTION_DDOT = 0

CCSDS_OMM_VERS = 2.0
CREATION_DATE  = 
ORIGINATOR     = 

OBJECT_NAME    = STARLINK-35379
OBJECT_ID      = 2025-235AC
CENTER_NAME    = EARTH
REF_FRAME      = TEME
TIME_SYSTEM    = UTC
MEAN_ELEMENT_THEORY = SGP/SGP4

EPOCH          = 2025-11-15T11:39:07.492896
MEAN_MOTION    = 15.49435706
ECCENTRICITY   = .0000616
INCLINATION    = 53.1610
RA_OF_ASC_NODE = 57.3326
ARG_OF_PERICENTER = 119.0422
MEAN_ANOMALY   = 241.0649

EPHEMERIS_TYPE = 0
CLASSIFICATION_TYPE = U
NORAD_CAT_ID   = 66084
ELEMENT_SET_NO = 999
REV_AT_EPOCH   = 541
BSTAR          = .24358E-2
MEAN_MOTION_DOT = .138054E-2
MEAN_MOTION_DDOT = 0

CCSDS_OMM_VERS = 2.0
CREATION_DATE  = 
ORIGINATOR     = 

OBJECT_NAME    = STARLINK-35370
OBJECT_ID      = 2025-235AD
CENTER_NAME    = EARTH
REF_FRAME      = TEME
TIME_SYSTEM    = UTC
MEAN_ELEMENT_THEORY = SGP/SGP4

EPOCH          = 2025-11-15T11:38:37.942368
MEAN_MOTION    = 15.49332595
ECCENTRICITY   = .0001095
INCLINATION    = 53.1606
RA_OF_ASC_NODE = 57.3296
ARG_OF_PERICENTER = 43.3223
MEAN_ANOMALY   = 316.7872

EPHEMERIS_TYPE = 0
CLASSIFICATION_TYPE = U
NORAD_CAT_ID   = 66085
ELEMENT_SET_NO = 999
REV_AT_EPOCH   = 538
BSTAR          = .1631E-2
MEAN_MOTION_DOT = .91404E-3
MEAN_MOTION_DDOT = 0

CCSDS_OMM_VERS = 2.0
CREATION_DATE  = 
ORIGINATOR     = 

OBJECT_NAME    = STARLINK-35596
OBJECT_ID      = 2025-236A
CENTER_NAME    = EARTH
REF_FRAME      = TEME
TIME_SYSTEM    = UTC
MEAN_ELEMENT_THEORY = SGP/SGP4

EPOCH          = 2025-11-15T12:00:02.998944
MEAN_MOTION    = 15.49348275
ECCENTRICITY   = .0001621
INCLINATION    = 53.1598
RA_OF_ASC_NODE = 276.0481
ARG_OF_PERICENTER = 85.3039
MEAN_ANOMALY   = 26.3644

EPHEMERIS_TYPE = 0
CLASSIFICATION_TYPE = U
NORAD_CAT_ID   = 66086
ELEMENT_SET_NO = 999
REV_AT_EPOCH   = 549
BSTAR          = -.19688E-2
MEAN_MOTION_DOT = -.108592E-2
MEAN_MOTION_DDOT = 0

CCSDS_OMM_VERS = 2.0
CREATION_DATE  = 
ORIGINATOR     = 

OBJECT_NAME    = STARLINK-35563
OBJECT_ID      = 2025-236B
CENTER_NAME    = EARTH
REF_FRAME      = TEME
TIME_SYSTEM    = UTC
MEAN_ELEMENT_THEORY = SGP/SGP4

EPOCH          = 2025-11-15T12:00:02.998944
MEAN_MOTION    = 15.49346415
ECCENTRICITY   = .0001553
INCLINATION    = 53.1597
RA_OF_ASC_NODE = 276.0440
ARG_OF_PERICENTER = 79.8506
MEAN_ANOMALY   = 33.7268

EPHEMERIS_TYPE = 0
CLASSIFICATION_TYPE = U
NORAD_CAT_ID   = 66087
ELEMENT_SET_NO = 999
REV_AT_EPOCH   = 543
BSTAR          = -.17204E-2
MEAN_MOTION_DOT = -.95101E-3
MEAN_MOTION_DDOT = 0

CCSDS_OMM_VERS = 2.0
CREATION_DATE  = 
ORIGINATOR     = 

OBJECT_NAME    = STARLINK-35461
OBJECT_ID      = 2025-236C
CENTER_NAME    = EARTH
REF_FRAME      = TEME
TIME_SYSTEM    = UTC
MEAN_ELEMENT_THEORY = SGP/SGP4

EPOCH          = 2025-11-15T12:00:02.998944
MEAN_MOTION    = 15.49347276
ECCENTRICITY   = .0001475
INCLINATION    = 53.1597
RA_OF_ASC_NODE = 276.0369
ARG_OF_PERICENTER = 78.7673
MEAN_ANOMALY   = 38.6511

EPHEMERIS_TYPE = 0
CLASSIFICATION_TYPE = U
NORAD_CAT_ID   = 66088
ELEMENT_SET_NO = 999
REV_AT_EPOCH   = 543
BSTAR          = -.18825E-2
MEAN_MOTION_DOT = -.10391E-2
MEAN_MOTION_DDOT = 0

CCSDS_OMM_VERS = 2.0
CREATION_DATE  = 
ORIGINATOR     = 

OBJECT_NAME    = STARLINK-35571
OBJECT_ID      = 2025-236D
CENTER_NAME    = EARTH
REF_FRAME      = TEME
TIME_SYSTEM    = UTC
MEAN_ELEMENT_THEORY = SGP/SGP4

EPOCH          = 2025-11-15T12:00:02.998944
MEAN_MOTION    = 15.49350176
ECCENTRICITY   = .0001533
INCLINATION    = 53.1598
RA_OF_ASC_NODE = 276.0407
ARG_OF_PERICENTER = 85.5831
MEAN_ANOMALY   = 29.9103

EPHEMERIS_TYPE = 0
CLASSIFICATION_TYPE = U
NORAD_CAT_ID   = 66089
ELEMENT_SET_NO = 999
REV_AT_EPOCH   = 549
BSTAR          = -.18267E-2
MEAN_MOTION_DOT = -.10089E-2
MEAN_MOTION_DDOT = 0

CCSDS_OMM_VERS = 2.0
CREATION_DATE  = 
ORIGINATOR     = 

OBJECT_NAME    = STARLINK-35570
OBJECT_ID      = 2025-236E
CENTER_NAME    = EARTH
REF_FRAME      = TEME
TIME_SYSTEM    = UTC
MEAN_ELEMENT_THEORY = SGP/SGP4

EPOCH          = 2025-11-15T12:00:02.998944
MEAN_MOTION    = 15.49351964
ECCENTRICITY   = .0001455
INCLINATION    = 53.1596
RA_OF_ASC_NODE = 276.0335
ARG_OF_PERICENTER = 79.6107
MEAN_ANOMALY   = 39.7224

EPHEMERIS_TYPE = 0
CLASSIFICATION_TYPE = U
NORAD_CAT_ID   = 66090
ELEMENT_SET_NO = 999
REV_AT_EPOCH   = 549
BSTAR          = -.19567E-2
MEAN_MOTION_DOT = -.10795E-2
MEAN_MOTION_DDOT = 0

CCSDS_OMM_VERS = 2.0
CREATION_DATE  = 
ORIGINATOR     = 

OBJECT_NAME    = STARLINK-35532
OBJECT_ID      = 2025-236F
CENTER_NAME    = EARTH
REF_FRAME      = TEME
TIME_SYSTEM    = UTC
MEAN_ELEMENT_THEORY = SGP/SGP4

EPOCH          = 2025-11-15T12:00:02.998944
MEAN_MOTION    = 15.49349224
ECCENTRICITY   = .0001396
INCLINATION    = 53.1596
RA_OF_ASC_NODE = 276.0294
ARG_OF_PERICENTER = 76.2196
MEAN_ANOMALY   = 45.0275

EPHEMERIS_TYPE = 0
CLASSIFICATION_TYPE = U
NORAD_CAT_ID   = 66091
ELEMENT_SET_NO = 999
REV_AT_EPOCH   = 549
BSTAR          = -.18007E-2
MEAN_MOTION_DOT = -.99474E-3
MEAN_MOTION_DDOT = 0

